start=new Date('2022-06-21T00:00:00.000Z').valueOf();
sats=[{"REF_FRAME":"TEME","BSTAR":"0.00012337000000","COUNTRY_CODE":"US","TLE_LINE1":"1 51148U 22005AW  22171.82357449  .00001676  00000-0  12337-3 0  9992","PERIOD":"95.437","ELEMENT_SET_NO":"999","INCLINATION":"53.2174","RCS_SIZE":"LARGE","DECAY_DATE":null,"TIME_SYSTEM":"UTC","ARG_OF_PERICENTER":"40.2523","MEAN_ANOMALY":"319.8613","ECCENTRICITY":"0.00019540","CLASSIFICATION_TYPE":"U","MEAN_MOTION_DOT":"0.00001676","OBJECT_NAME":"STARLINK-3359","REV_AT_EPOCH":"2471","APOAPSIS":"541.092","GP_ID":"206488490","SEMIMAJOR_AXIS":"6917.875","OBJECT_ID":"2022-005AW","PERIAPSIS":"538.389","SITE":"AFETR","TLE_LINE2":"2 51148  53.2174 284.8200 0001954  40.2523 319.8613 15.08841639 24712","CENTER_NAME":"EARTH","OBJECT_TYPE":"PAYLOAD","EPHEMERIS_TYPE":"0","MEAN_MOTION":"15.08841639","FILE":"3498280","LAUNCH_DATE":"2022-01-19","MEAN_MOTION_DDOT":"0.0000000000000","NORAD_CAT_ID":"51148","RA_OF_ASC_NODE":"284.8200","EPOCH":"2022-06-20T19:45:56.835936","MEAN_ELEMENT_THEORY":"SGP4"},{"EPOCH":"2022-06-20T16:29:52.821888","MEAN_ELEMENT_THEORY":"SGP4","NORAD_CAT_ID":"51149","RA_OF_ASC_NODE":"285.4286","MEAN_MOTION_DDOT":"0.0000000000000","LAUNCH_DATE":"2022-01-19","FILE":"3498404","MEAN_MOTION":"15.08836068","EPHEMERIS_TYPE":"0","OBJECT_TYPE":"PAYLOAD","TLE_LINE2":"2 51149  53.2175 285.4286 0002124  39.2752 320.8394 15.08836068 23589","CENTER_NAME":"EARTH","SITE":"AFETR","PERIAPSIS":"538.288","OBJECT_ID":"2022-005AX","SEMIMAJOR_AXIS":"6917.892","GP_ID":"206514706","APOAPSIS":"541.227","REV_AT_EPOCH":"2358","OBJECT_NAME":"STARLINK-3360","MEAN_MOTION_DOT":"0.00000999","CLASSIFICATION_TYPE":"U","MEAN_ANOMALY":"320.8394","ECCENTRICITY":"0.00021240","ARG_OF_PERICENTER":"39.2752","TIME_SYSTEM":"UTC","DECAY_DATE":null,"RCS_SIZE":"LARGE","INCLINATION":"53.2175","ELEMENT_SET_NO":"999","PERIOD":"95.438","TLE_LINE1":"1 51149U 22005AX  22171.68741692  .00000999  00000-0  80880-4 0  9990","COUNTRY_CODE":"US","BSTAR":"0.00008088000000","REF_FRAME":"TEME"},{"OBJECT_NAME":"STARLINK-3357","MEAN_MOTION_DOT":"0.00000005","REV_AT_EPOCH":"2373","CLASSIFICATION_TYPE":"U","MEAN_ANOMALY":"308.5519","ECCENTRICITY":"0.00018110","DECAY_DATE":null,"ARG_OF_PERICENTER":"51.5636","TIME_SYSTEM":"UTC","ELEMENT_SET_NO":"999","PERIOD":"95.438","RCS_SIZE":"LARGE","INCLINATION":"53.2194","TLE_LINE1":"1 51150U 22005AY  22171.71041093  .00000005  00000-0  18407-4 0  9998","REF_FRAME":"TEME","COUNTRY_CODE":"US","BSTAR":"0.00001840700000","EPOCH":"2022-06-20T17:02:59.504352","MEAN_ELEMENT_THEORY":"SGP4","MEAN_MOTION_DDOT":"0.0000000000000","NORAD_CAT_ID":"51150","RA_OF_ASC_NODE":"275.3203","LAUNCH_DATE":"2022-01-19","MEAN_MOTION":"15.08832151","FILE":"3498404","EPHEMERIS_TYPE":"0","OBJECT_TYPE":"PAYLOAD","TLE_LINE2":"2 51150  53.2194 275.3203 0001811  51.5636 308.5519 15.08832151 23737","CENTER_NAME":"EARTH","SITE":"AFETR","PERIAPSIS":"538.517","APOAPSIS":"541.022","OBJECT_ID":"2022-005AY","SEMIMAJOR_AXIS":"6917.904","GP_ID":"206514955"},{"ECCENTRICITY":"0.00018030","MEAN_ANOMALY":"311.5917","CLASSIFICATION_TYPE":"U","REV_AT_EPOCH":"2358","MEAN_MOTION_DOT":"-0.00001091","OBJECT_NAME":"STARLINK-3361","TLE_LINE1":"1 51151U 22005AZ  22171.68005042 -.00001091  00000-0 -50436-4 0  9995","BSTAR":"-0.00005043600000","COUNTRY_CODE":"US","REF_FRAME":"TEME","TIME_SYSTEM":"UTC","ARG_OF_PERICENTER":"48.5230","DECAY_DATE":null,"INCLINATION":"53.2174","RCS_SIZE":"LARGE","PERIOD":"95.438","ELEMENT_SET_NO":"999","NORAD_CAT_ID":"51151","RA_OF_ASC_NODE":"285.4569","MEAN_MOTION_DDOT":"0.0000000000000","LAUNCH_DATE":"2022-01-19","MEAN_ELEMENT_THEORY":"SGP4","EPOCH":"2022-06-20T16:19:16.356288","PERIAPSIS":"538.508","SITE":"AFETR","TLE_LINE2":"2 51151  53.2174 285.4569 0001803  48.5230 311.5917 15.08836693 23584","CENTER_NAME":"EARTH","GP_ID":"206515199","SEMIMAJOR_AXIS":"6917.890","OBJECT_ID":"2022-005AZ","APOAPSIS":"541.003","FILE":"3498404","MEAN_MOTION":"15.08836693","OBJECT_TYPE":"PAYLOAD","EPHEMERIS_TYPE":"0"},{"MEAN_ANOMALY":"313.1794","ECCENTRICITY":"0.00017880","CLASSIFICATION_TYPE":"U","REV_AT_EPOCH":"2360","MEAN_MOTION_DOT":"-0.00000329","OBJECT_NAME":"STARLINK-3364","TLE_LINE1":"1 51152U 22005BA  22171.81621339 -.00000329  00000-0 -25957-5 0  9998","BSTAR":"-0.00000259570000","COUNTRY_CODE":"US","REF_FRAME":"TEME","TIME_SYSTEM":"UTC","ARG_OF_PERICENTER":"46.9348","DECAY_DATE":null,"INCLINATION":"53.2175","RCS_SIZE":"LARGE","PERIOD":"95.438","ELEMENT_SET_NO":"999","NORAD_CAT_ID":"51152","RA_OF_ASC_NODE":"284.8483","MEAN_MOTION_DDOT":"0.0000000000000","LAUNCH_DATE":"2022-01-19","EPOCH":"2022-06-20T19:35:20.836896","MEAN_ELEMENT_THEORY":"SGP4","PERIAPSIS":"538.518","SITE":"AFETR","TLE_LINE2":"2 51152  53.2175 284.8483 0001788  46.9348 313.1794 15.08836803 23605","CENTER_NAME":"EARTH","GP_ID":"206515443","SEMIMAJOR_AXIS":"6917.890","OBJECT_ID":"2022-005BA","APOAPSIS":"540.992","MEAN_MOTION":"15.08836803","FILE":"3498404","OBJECT_TYPE":"PAYLOAD","EPHEMERIS_TYPE":"0"},{"OBJECT_TYPE":"PAYLOAD","EPHEMERIS_TYPE":"0","FILE":"3498404","MEAN_MOTION":"15.08842993","APOAPSIS":"541.135","SEMIMAJOR_AXIS":"6917.871","GP_ID":"206515457","OBJECT_ID":"2022-010E","PERIAPSIS":"538.337","CENTER_NAME":"EARTH","TLE_LINE2":"2 51460  53.2186 255.6741 0002022  50.1377 309.9793 15.08842993 21802","SITE":"AFETR","MEAN_ELEMENT_THEORY":"SGP4","EPOCH":"2022-06-20T15:09:03.205440","LAUNCH_DATE":"2022-02-03","MEAN_MOTION_DDOT":"0.0000000000000","NORAD_CAT_ID":"51460","RA_OF_ASC_NODE":"255.6741","PERIOD":"95.437","ELEMENT_SET_NO":"999","INCLINATION":"53.2186","RCS_SIZE":"LARGE","DECAY_DATE":null,"TIME_SYSTEM":"UTC","ARG_OF_PERICENTER":"50.1377","REF_FRAME":"TEME","BSTAR":"0.00002071100000","COUNTRY_CODE":"US","TLE_LINE1":"1 51460U 22010E   22171.63128710  .00000041  00000-0  20711-4 0  9992","MEAN_MOTION_DOT":"0.00000041","OBJECT_NAME":"STARLINK-3167","REV_AT_EPOCH":"2180","MEAN_ANOMALY":"309.9793","ECCENTRICITY":"0.00020220","CLASSIFICATION_TYPE":"U"},{"CLASSIFICATION_TYPE":"U","ECCENTRICITY":"0.00018830","MEAN_ANOMALY":"316.8402","REV_AT_EPOCH":"2180","OBJECT_NAME":"STARLINK-3181","MEAN_MOTION_DOT":"-0.00001186","TLE_LINE1":"1 51461U 22010F   22171.64969428 -.00001186  00000-0 -56400-4 0  9990","COUNTRY_CODE":"US","BSTAR":"-0.00005640000000","REF_FRAME":"TEME","ARG_OF_PERICENTER":"43.2738","TIME_SYSTEM":"UTC","DECAY_DATE":null,"RCS_SIZE":"LARGE","INCLINATION":"53.2182","ELEMENT_SET_NO":"999","PERIOD":"95.438","RA_OF_ASC_NODE":"255.5971","NORAD_CAT_ID":"51461","MEAN_MOTION_DDOT":"0.0000000000000","LAUNCH_DATE":"2022-02-03","EPOCH":"2022-06-20T15:35:33.585792","MEAN_ELEMENT_THEORY":"SGP4","CENTER_NAME":"EARTH","TLE_LINE2":"2 51461  53.2182 255.5971 0001883  43.2738 316.8402 15.08835282 21808","SITE":"AFETR","PERIAPSIS":"538.457","OBJECT_ID":"2022-010F","GP_ID":"206514220","SEMIMAJOR_AXIS":"6917.895","APOAPSIS":"541.062","MEAN_MOTION":"15.08835282","FILE":"3498404","EPHEMERIS_TYPE":"0","OBJECT_TYPE":"PAYLOAD"},{"RA_OF_ASC_NODE":"255.6144","NORAD_CAT_ID":"51462","MEAN_MOTION_DDOT":"0.0000000000000","LAUNCH_DATE":"2022-02-03","EPOCH":"2022-06-20T15:30:15.454944","MEAN_ELEMENT_THEORY":"SGP4","TLE_LINE2":"2 51462  53.2184 255.6144 0002210  39.9883 320.1272 15.08837496 21804","CENTER_NAME":"EARTH","SITE":"AFETR","PERIAPSIS":"538.224","OBJECT_ID":"2022-010G","GP_ID":"206514469","SEMIMAJOR_AXIS":"6917.888","APOAPSIS":"541.282","FILE":"3498404","MEAN_MOTION":"15.08837496","EPHEMERIS_TYPE":"0","OBJECT_TYPE":"PAYLOAD","CLASSIFICATION_TYPE":"U","ECCENTRICITY":"0.00022100","MEAN_ANOMALY":"320.1272","REV_AT_EPOCH":"2180","OBJECT_NAME":"STARLINK-3166","MEAN_MOTION_DOT":"0.00001125","TLE_LINE1":"1 51462U 22010G   22171.64601221  .00001125  00000-0  88805-4 0  9990","COUNTRY_CODE":"US","BSTAR":"0.00008880500000","REF_FRAME":"TEME","ARG_OF_PERICENTER":"39.9883","TIME_SYSTEM":"UTC","DECAY_DATE":null,"RCS_SIZE":"LARGE","INCLINATION":"53.2184","ELEMENT_SET_NO":"999","PERIOD":"95.438"},{"PERIOD":"95.437","ELEMENT_SET_NO":"999","INCLINATION":"53.2197","RCS_SIZE":"LARGE","DECAY_DATE":null,"TIME_SYSTEM":"UTC","ARG_OF_PERICENTER":"46.8908","REF_FRAME":"TEME","BSTAR":"0.00009123700000","COUNTRY_CODE":"US","TLE_LINE1":"1 51463U 22010H   22171.75272186  .00001165  00000-0  91237-4 0  9994","MEAN_MOTION_DOT":"0.00001165","OBJECT_NAME":"STARLINK-3419","REV_AT_EPOCH":"2151","MEAN_ANOMALY":"313.2224","ECCENTRICITY":"0.00016790","CLASSIFICATION_TYPE":"U","OBJECT_TYPE":"PAYLOAD","EPHEMERIS_TYPE":"0","FILE":"3498404","MEAN_MOTION":"15.08845998","APOAPSIS":"540.889","SEMIMAJOR_AXIS":"6917.862","GP_ID":"206515714","OBJECT_ID":"2022-010H","PERIAPSIS":"538.566","TLE_LINE2":"2 51463  53.2197 255.1251 0001679  46.8908 313.2224 15.08845998 21510","SITE":"AFETR","CENTER_NAME":"EARTH","EPOCH":"2022-06-20T18:03:55.168704","MEAN_ELEMENT_THEORY":"SGP4","LAUNCH_DATE":"2022-02-03","MEAN_MOTION_DDOT":"0.0000000000000","NORAD_CAT_ID":"51463","RA_OF_ASC_NODE":"255.1251"},{"CLASSIFICATION_TYPE":"U","ECCENTRICITY":"0.00019250","MEAN_ANOMALY":"319.6721","REV_AT_EPOCH":"2229","OBJECT_NAME":"STARLINK-3189","MEAN_MOTION_DOT":"-0.00001078","COUNTRY_CODE":"US","BSTAR":"-0.00004964900000","REF_FRAME":"TEME","TLE_LINE1":"1 51464U 22010J   22171.57240871 -.00001078  00000-0 -49649-4 0  9996","RCS_SIZE":"LARGE","INCLINATION":"53.2182","ELEMENT_SET_NO":"999","PERIOD":"95.438","ARG_OF_PERICENTER":"40.4414","TIME_SYSTEM":"UTC","DECAY_DATE":null,"LAUNCH_DATE":"2022-02-03","NORAD_CAT_ID":"51464","RA_OF_ASC_NODE":"255.9396","MEAN_MOTION_DDOT":"0.0000000000000","MEAN_ELEMENT_THEORY":"SGP4","EPOCH":"2022-06-20T13:44:16.112544","OBJECT_ID":"2022-010J","GP_ID":"206515958","SEMIMAJOR_AXIS":"6917.881","APOAPSIS":"541.078","CENTER_NAME":"EARTH","TLE_LINE2":"2 51464  53.2182 255.9396 0001925  40.4414 319.6721 15.08839793 22293","SITE":"AFETR","PERIAPSIS":"538.414","EPHEMERIS_TYPE":"0","OBJECT_TYPE":"PAYLOAD","FILE":"3498404","MEAN_MOTION":"15.08839793"}];
